[{"OBJECT_NAME":"ONEWEB-0556","OBJECT_ID":"2023-029C","EPOCH":"2026-03-09T16:35:22.298784","MEAN_MOTION":13.20771418,"ECCENTRICITY":8.93e-5,"INCLINATION":87.9159,"RA_OF_ASC_NODE":294.3463,"ARG_OF_PERICENTER":113.7539,"MEAN_ANOMALY":246.3688,"EPHEMERIS_TYPE":0,"CLASSIFICATION_TYPE":"U","NORAD_CAT_ID":55798,"ELEMENT_SET_NO":999,"REV_AT_EPOCH":14801,"BSTAR":-0.00030786713,"MEAN_MOTION_DOT":-1.12e-6,"MEAN_MOTION_DDOT":0},{"OBJECT_NAME":"COSMOS 970 DEB","OBJECT_ID":"1977-121D","EPOCH":"2026-03-09T13:50:02.700096","MEAN_MOTION":13.36757633,"ECCENTRICITY":0.0084617,"INCLINATION":65.8696,"RA_OF_ASC_NODE":139.2268,"ARG_OF_PERICENTER":134.762,"MEAN_ANOMALY":336.3173,"EPHEMERIS_TYPE":0,"CLASSIFICATION_TYPE":"U","NORAD_CAT_ID":10562,"ELEMENT_SET_NO":999,"REV_AT_EPOCH":34819,"BSTAR":0.00039332,"MEAN_MOTION_DOT":1.36e-6,"MEAN_MOTION_DDOT":0}]
